GLOBALSTAR M075         
1 37192U 10054E   24361.93208244 -.00000073  00000+0  16966-3 0  9991
2 37192  51.9968 346.0155 0000402  61.4782 330.6585 12.62270655654090
GLOBALSTAR M073         
1 37193U 10054F   24361.86479855 -.00000075  00000+0  15985-3 0  9994
2 37193  52.0057 259.9089 0000829  56.0088  30.2024 12.62261499656079
GLOBALSTAR M083         
1 37739U 11033A   24361.71941168 -.00000067  00000+0  20418-3 0  9991
2 37739  51.9832 209.3181 0000903  89.0780 356.1350 12.62269927625076
GLOBALSTAR M088         
1 37740U 11033B   24362.31375147 -.00000111  00000+0 -37893-4 0  9995
2 37740  51.9727 113.1416 0000845 123.6057 264.1777 12.62266697620988
GLOBALSTAR M091         
1 37741U 11033C   24362.48239374 -.00000097  00000+0  39009-4 0  9998
2 37741  52.0007  75.8779 0000713 150.9365 222.6504 12.62272081621765
GLOBALSTAR M085         
1 37742U 11033D   24361.55073036 -.00000088  00000+0  87975-4 0  9992
2 37742  51.9885  29.9045 0000378 153.6754   5.0713 12.62263207622387
GLOBALSTAR M081         
1 37743U 11033E   24361.65533891 -.00000080  00000+0  13214-3 0  9990
2 37743  51.9976  32.2654 0000125 187.1267 327.7889 12.62274518622052
GLOBALSTAR M089         
1 37744U 11033F   24361.69877601 -.00000074  00000+0  16854-3 0  9991
2 37744  51.9952 346.3953 0000529  35.6216 135.8155 12.62274085622904
